[{"OBJECT_NAME":"YAOGAN-28","OBJECT_ID":"2015-064A","EPOCH":"2026-03-09T23:07:10.370208","MEAN_MOTION":15.26008,"ECCENTRICITY":0.00111911,"INCLINATION":97.2901,"RA_OF_ASC_NODE":209.4389,"ARG_OF_PERICENTER":175.4532,"MEAN_ANOMALY":184.6811,"EPHEMERIS_TYPE":0,"CLASSIFICATION_TYPE":"U","NORAD_CAT_ID":41026,"ELEMENT_SET_NO":999,"REV_AT_EPOCH":57554,"BSTAR":0.00039691695,"MEAN_MOTION_DOT":0.00010159,"MEAN_MOTION_DDOT":0},{"OBJECT_NAME":"STARLINK-34165","OBJECT_ID":"2025-101D","EPOCH":"2026-03-09T16:00:03.000096","MEAN_MOTION":15.27542503,"ECCENTRICITY":0.00017788,"INCLINATION":43.0037,"RA_OF_ASC_NODE":357.7874,"ARG_OF_PERICENTER":272.4604,"MEAN_ANOMALY":146.8496,"EPHEMERIS_TYPE":0,"CLASSIFICATION_TYPE":"U","NORAD_CAT_ID":63997,"ELEMENT_SET_NO":999,"REV_AT_EPOCH":577,"BSTAR":0.0015048177,"MEAN_MOTION_DOT":0.00041332,"MEAN_MOTION_DDOT":0}]
